GLOBALSTAR M063         
1 26081U 00008A   24323.90050104 -.00000058  00000+0  35977-3 0  9995
2 26081  51.9964 305.3894 0004603 272.8816 101.6049 11.86162286132628
GLOBALSTAR M062         
1 26082U 00008B   24323.86672749 -.00000195  00000+0 -69503-3 0  9991
2 26082  51.9870 354.2652 0007006  24.8391 146.1249 12.43449655470457
GLOBALSTAR M060         
1 26083U 00008C   24324.35508626 -.00000074  00000+0  17209-3 0  9990
2 26083  52.0022 283.1509 0003964  55.5577 110.8410 12.17646579126985
GLOBALSTAR M064         
1 26084U 00008D   24323.55769643 -.00000067  00000+0  22404-3 0  9995
2 26084  52.0053  47.6002 0001360  36.4147 323.6778 11.88525684142169
GLOBALSTAR M065         
1 31571U 07020A   24324.04609226 -.00000096  00000+0  43003-4 0  9999
2 31571  51.9864 145.8604 0009749 192.3731 318.7789 12.61978889807181
GLOBALSTAR M069         
1 31573U 07020C   24324.41124454 -.00000097  00000+0  22876-4 0  9993
2 31573  51.9940 102.8805 0001716  95.3559 297.3568 12.53304871807946
GLOBALSTAR M072         
1 31574U 07020D   24323.96374137 -.00000058  00000+0  30284-3 0  9996
2 31574  52.0070 199.8645 0001120  63.5724  38.2353 12.34772981806405
GLOBALSTAR M071         
1 31576U 07020F   24324.11493705 -.00000102  00000+0  77035-5 0  9996
2 31576  52.0053 106.5727 0001648  88.3356  82.8452 12.62263447807932
